INTELSAT 23 (IS-23)     
1 38867U 12057A   26200.25340818 -.00000290  00000+0  00000+0 0  9998
2 38867   0.0170   5.2080 0000362 122.0867 207.9463  1.00276653 50279
FM-6                    
1 39360U 13058A   26200.16954655 -.00000021  00000+0  00000+0 0  9991
2 39360   0.0133  42.8142 0001287 152.0607  46.7740  1.00273206 46391
INTELSAT 30 (IS-30)     
1 40271U 14062A   26200.23155557 -.00000156  00000+0  00000+0 0  9991
2 40271   0.0186  56.6968 0001643 335.4201 253.2172  1.00271945  7113
DIRECTV 14              
1 40333U 14078B   26200.27961361 -.00000130  00000+0  00000+0 0  9991
2 40333   0.0137  54.0997 0000296 327.7583 276.6199  1.00270373 42360
DIRECTV 15              
1 40663U 15026A   26200.17223323 -.00000108  00000+0  00000+0 0  9994
2 40663   0.0232  79.5274 0000294 332.9587 203.5949  1.00272226 40787
SKY MEXICO-1            
1 40664U 15026B   26200.23287253 -.00000240  00000+0  00000+0 0  9991
2 40664   0.0181  73.2818 0002415  59.4218 169.3576  1.00272705 40771
INTELSAT 34 (IS-34)     
1 40874U 15039A   26200.18162036 -.00000291  00000+0  00000+0 0  9999
2 40874   0.0106  20.4828 0000524 351.8153 294.5649  1.00272620 39958
INTELSAT 31 (IS-31)     
1 41581U 16035A   26200.23155626 -.00000156  00000+0  00000+0 0  9995
2 41581   0.0043 348.8206 0000958 312.1432 344.3692  1.00272130 37004
INTELSAT 36 (IS-36)     
1 41747U 16053A   26200.19608413 -.00000029  00000+0  00000+0 0  9990
2 41747   0.0092  26.0370 0002492 321.7372  88.2890  1.00271098 36277
INTELSAT 32E (IS-32E)   
1 41945U 17007B   26200.25531486 -.00000274  00000+0  00000+0 0  9994
2 41945   0.0144  36.7624 0000701 359.1654 309.8437  1.00274228 34549
INTELSAT 35E (IS-35E)   
1 42818U 17041A   26200.25704819 -.00000243  00000+0  00000+0 0  9990
2 42818   0.0157  69.5891 0001970  49.0457 236.4493  1.00272581 33139
INTELSAT 37E (IS-37E)   
1 42950U 17059A   26200.26034155 -.00000146  00000+0  00000+0 0  9998
2 42950   0.0174  81.4966 0002687  38.9301 252.3402  1.00272950 32385
AZERSPACE 2 (IS-38)     
1 43632U 18074A   26200.20155377  .00000000  00000+0  00000+0 0  9996
2 43632   0.0180  49.4353 0001510  59.6241 305.6149  1.00270259 28768
HORIZONS-3E             
1 43633U 18074B   26200.15482613 -.00000036  00000+0  00000+0 0  9997
2 43633   0.0325 259.1318 0000660  29.8617 232.6746  1.00271726 28663
AT&T T-16               
1 44333U 19034A   26200.28422029 -.00000120  00000+0  00000+0 0  9995
2 44333   0.0144  75.3798 0000793 282.6728 300.4855  1.00272345 25951
INTELSAT 39 (IS-39)     
1 44476U 19049B   26200.20493380  .00000000  00000+0  00000+0 0  9995
2 44476   0.0174  49.6073 0000871 311.7489  71.3737  1.00270751 25443
GALAXY 30 (G-30)        
1 46114U 20056C   26200.22043021  .00000031  00000+0  00000+0 0  9995
2 46114   0.0199  55.0138 0002239  63.4215 132.9302  1.00272876 21619
GALAXY 33 (G-33)        
1 54026U 22128A   26200.23757472  .00000074  00000+0  00000+0 0  9998
2 54026   0.0197  67.1155 0001912  47.0253 135.3904  1.00270535 14064
GALAXY 34 (G-34)        
1 54027U 22128B   26200.00947611  .00000052  00000+0  00000+0 0  9996
2 54027   0.0126  76.0875 0002039  52.1986  42.9363  1.00280002 14237
GALAXY 31 (G-31)        
1 54243U 22153A   26200.24916641  .00000008  00000+0  00000+0 0  9990
2 54243   0.0222  95.2270 0001160  24.2367 146.2594  1.00272538  7458
GALAXY 32 (G-32)        
1 54244U 22153B   26200.23308634 -.00000179  00000+0  00000+0 0  9997
2 54244   0.0148  58.0820 0001410 351.1877 240.6668  1.00272371 13464
GALAXY 35 (G-35)        
1 54741U 22170A   26200.22920104 -.00000167  00000+0  00000+0 0  9996
2 54741   0.0172  94.5676 0001936  21.9805 169.8728  1.00272223 13211
GALAXY 36 (G-36)        
1 54742U 22170B   26200.23227147 -.00000190  00000+0  00000+0 0  9991
2 54742   0.0194 140.7869 0002693 317.8610 192.9911  1.00271810 13094
GALAXY 37 (G-37)        
1 57493U 23112A   26200.26312675  .00000000  00000+0  00000+0 0  9997
2 57493   0.0222  58.7366 0002125  57.3926 148.6551  1.00270756 10866
