OBJECT_NAME,OBJECT_ID,EPOCH,MEAN_MOTION,ECCENTRICITY,INCLINATION,RA_OF_ASC_NODE,ARG_OF_PERICENTER,MEAN_ANOMALY,EPHEMERIS_TYPE,CLASSIFICATION_TYPE,NORAD_CAT_ID,ELEMENT_SET_NO,REV_AT_EPOCH,BSTAR,MEAN_MOTION_DOT,MEAN_MOTION_DDOT
INTELSAT 23 (IS-23),2012-057A,2026-07-19T06:04:54.466752,1.00276653,.00003624,0.0170,5.2080,122.0867,207.9463,0,U,38867,999,5027,0,-.29E-5,0
FM-6,2013-058A,2026-07-19T04:04:08.821920,1.00273206,.00012872,0.0133,42.8142,152.0607,46.7740,0,U,39360,999,4639,0,-.21E-6,0
INTELSAT 30 (IS-30),2014-062A,2026-07-19T05:33:26.401248,1.00271945,.00016432,0.0186,56.6968,335.4201,253.2172,0,U,40271,999,711,0,-.156E-5,0
DIRECTV 14,2014-078B,2026-07-19T06:42:38.615904,1.00270373,.00002965,0.0137,54.0997,327.7583,276.6199,0,U,40333,999,4236,0,-.13E-5,0
DIRECTV 15,2015-026A,2026-07-19T04:08:00.951072,1.00272226,.00002949,0.0232,79.5274,332.9587,203.5949,0,U,40663,999,4078,0,-.108E-5,0
SKY MEXICO-1,2015-026B,2026-07-19T05:35:20.186592,1.00272705,.00024157,0.0181,73.2818,59.4218,169.3576,0,U,40664,999,4077,0,-.24E-5,0
INTELSAT 34 (IS-34),2015-039A,2026-07-19T04:21:31.999104,1.00272620,.00005246,0.0106,20.4828,351.8153,294.5649,0,U,40874,999,3995,0,-.291E-5,0
INTELSAT 31 (IS-31),2016-035A,2026-07-19T05:33:26.460864,1.00272130,.0000958,0.0043,348.8206,312.1432,344.3692,0,U,41581,999,3700,0,-.156E-5,0
INTELSAT 36 (IS-36),2016-053A,2026-07-19T04:42:21.668832,1.00271098,.00024927,0.0092,26.0370,321.7372,88.2890,0,U,41747,999,3627,0,-.29E-6,0
INTELSAT 32E (IS-32E),2017-007B,2026-07-19T06:07:39.203904,1.00274228,.00007013,0.0144,36.7624,359.1654,309.8437,0,U,41945,999,3454,0,-.274E-5,0
INTELSAT 35E (IS-35E),2017-041A,2026-07-19T06:10:08.963616,1.00272581,.00019707,0.0157,69.5891,49.0457,236.4493,0,U,42818,999,3313,0,-.243E-5,0
INTELSAT 37E (IS-37E),2017-059A,2026-07-19T06:14:53.509920,1.00272950,.00026879,0.0174,81.4966,38.9301,252.3402,0,U,42950,999,3238,0,-.146E-5,0
AZERSPACE 2 (IS-38),2018-074A,2026-07-19T04:50:14.245728,1.00270259,.00015101,0.0180,49.4353,59.6241,305.6149,0,U,43632,999,2876,0,0,0
HORIZONS-3E,2018-074B,2026-07-19T03:42:56.977632,1.00271726,.00006606,0.0325,259.1318,29.8617,232.6746,0,U,43633,999,2866,0,-.36E-6,0
AT&T T-16,2019-034A,2026-07-19T06:49:16.633056,1.00272345,.00007934,0.0144,75.3798,282.6728,300.4855,0,U,44333,999,2595,0,-.12E-5,0
INTELSAT 39 (IS-39),2019-049B,2026-07-19T04:55:06.280320,1.00270751,.00008711,0.0174,49.6073,311.7489,71.3737,0,U,44476,999,2544,0,0,0
GALAXY 30 (G-30),2020-056C,2026-07-19T05:17:25.170144,1.00272876,.00022398,0.0199,55.0138,63.4215,132.9302,0,U,46114,999,2161,0,.31E-6,0
GALAXY 33 (G-33),2022-128A,2026-07-19T05:42:06.455808,1.00270535,.00019127,0.0197,67.1155,47.0253,135.3904,0,U,54026,999,1406,0,.74E-6,0
GALAXY 34 (G-34),2022-128B,2026-07-19T00:13:38.735904,1.00280002,.00020398,0.0126,76.0875,52.1986,42.9363,0,U,54027,999,1423,0,.52E-6,0
GALAXY 31 (G-31),2022-153A,2026-07-19T05:58:47.977824,1.00272538,.000116,0.0222,95.2270,24.2367,146.2594,0,U,54243,999,745,0,.8E-7,0
GALAXY 32 (G-32),2022-153B,2026-07-19T05:35:38.659776,1.00272371,.00014106,0.0148,58.0820,351.1877,240.6668,0,U,54244,999,1346,0,-.179E-5,0
GALAXY 35 (G-35),2022-170A,2026-07-19T05:30:02.969856,1.00272223,.00019363,0.0172,94.5676,21.9805,169.8728,0,U,54741,999,1321,0,-.167E-5,0
GALAXY 36 (G-36),2022-170B,2026-07-19T05:34:28.255008,1.00271810,.00026935,0.0194,140.7869,317.8610,192.9911,0,U,54742,999,1309,0,-.19E-5,0
GALAXY 37 (G-37),2023-112A,2026-07-19T06:18:54.151200,1.00270756,.00021255,0.0222,58.7366,57.3926,148.6551,0,U,57493,999,1086,0,0,0
